AO-51
1 28375U 04025K   10336.49877346  .00000068  00000-0  33222-4 0  8378
2 28375 098.0759 320.5466 0083849 307.4487 051.9090 14.40713461337745
CP3
1 31129U 07012N   10336.60041868  .00000181  00000-0  51903-4 0  7374
2 31129 097.9203 006.9946 0103238 071.6260 289.6129 14.52343323192303
CO-65
1 32785U 08021C   10336.72093350 -.00000097  00000-0 -55648-5 0  8527
2 32785 097.8780 039.1334 0016179 096.9152 263.3896 14.81776159140444
KKS-1
1 33493U 09002B   10336.81214805  .00000605  00000-0  84578-4 0   926
2 33493 098.1033 097.9532 0019070 318.7378 041.2394 14.81223620100448
SOHLA-1
1 33496U 09002E   10335.79980376 -.00000005  00000-0  74546-5 0  2694
2 33496 098.0687 082.8190 0007218 038.6815 321.4915 14.69537373 99496
TISAT-1
1 36799U 10035E   10336.71766666  .00000403  00000-0  60135-4 0  3665
2 36799 098.1288 037.8192 0015211 187.2186 172.8809 14.80249184 21240
STUDSAT
1 36801U 10035G   10335.75263938  .00001113  00000-0  15475-3 0 01209
2 36801 098.1294 036.7251 0014015 179.1127 181.0114 14.79844552021093
NOAA-10
1 16969U 86073A   10336.52355971  .00000103  00000-0  59604-4 0  2978
2 16969 098.6416 003.7777 0013104 080.5878 279.6791 14.27436384259596
NOAA-11
1 19531U 88089A   10336.32821308 -.00000222  00000-0 -92532-4 0  3078
2 19531 098.7640 062.4465 0011818 033.2895 326.9016 14.14897208144911
NOAA-12
1 21263U 91032A   10336.43927050  .00000056  00000-0  42251-4 0  7966
2 21263 098.7605 349.5439 0013116 041.4438 318.7742 14.25670943 16374
MET-3/5
1 21655U 91056A   10335.76734603  .00000051  00000-0  10000-3 0  9774
2 21655 082.5570 190.2389 0012524 293.3976 066.5778 13.17026282927732
MET-2/21
1 22782U 93055A   10336.49253916  .00000037  00000-0  20198-4 0  9539
2 22782 082.5457 118.9344 0021057 292.4962 067.3967 13.83650740871352
OKEAN-4
1 23317U 94066A   10335.73688416  .00000313  00000-0  35410-4 0 04096
2 23317 082.5407 197.4655 0023616 052.2813 308.0555 14.82902621871287
NOAA-14
1 23455U 94089A   10336.43575012  .00000003  00000-0  25074-4 0  2863
2 23455 098.8676 055.9096 0010161 115.7020 244.5191 14.13801825821273
NOAA-15
1 25338U 98030A   10336.26667368  .00000180  00000-0  95578-4 0  6150
2 25338 098.6369 320.3278 0009911 309.1656 050.8640 14.24870177652680
RESURS
1 25394U 98043A   10336.60758351  .00000004  00000-0  19262-4 0  6653
2 25394 098.2999 345.4765 0002392 082.9246 277.2201 14.24217442644323
FENGYUN1
1 25730U 99025A   10336.83065211  .00000985  00000-0  59827-3 0  1988
2 25730 098.8019 297.5334 0020130 145.3391 214.9082 14.08447975595429
