Satellite: AO-51
Catalog number: 28375
Epoch time:      10336.49877346
Element set:     837
Inclination:      098.0759 deg
RA of node:       320.5466 deg
Eccentricity:    0.0083849
Arg of perigee:   307.4487 deg
Mean anomaly:     051.9090 deg
Mean motion:   14.40713461 rev/day
Decay rate:        6.8e-07 rev/day^2
Epoch rev:           33774
Checksum:              343

Satellite: CP3
Catalog number: 31129
Epoch time:      10336.60041868
Element set:     737
Inclination:      097.9203 deg
RA of node:       006.9946 deg
Eccentricity:    0.0103238
Arg of perigee:   071.6260 deg
Mean anomaly:     289.6129 deg
Mean motion:   14.52343323 rev/day
Decay rate:       1.81e-06 rev/day^2
Epoch rev:           19230
Checksum:              286

Satellite: CO-65
Catalog number: 32785
Epoch time:      10336.72093350
Element set:     852
Inclination:      097.8780 deg
RA of node:       039.1334 deg
Eccentricity:    0.0016179
Arg of perigee:   096.9152 deg
Mean anomaly:     263.3896 deg
Mean motion:   14.81776159 rev/day
Decay rate:       -9.7e-07 rev/day^2
Epoch rev:           14044
Checksum:              338

Satellite: KKS-1
Catalog number: 33493
Epoch time:      10336.81214805
Element set:      92
Inclination:      098.1033 deg
RA of node:       097.9532 deg
Eccentricity:    0.0019070
Arg of perigee:   318.7378 deg
Mean anomaly:     041.2394 deg
Mean motion:   14.81223620 rev/day
Decay rate:       6.05e-06 rev/day^2
Epoch rev:           10044
Checksum:              271

Satellite: SOHLA-1
Catalog number: 33496
Epoch time:      10335.79980376
Element set:     269
Inclination:      098.0687 deg
RA of node:       082.8190 deg
Eccentricity:    0.0007218
Arg of perigee:   038.6815 deg
Mean anomaly:     321.4915 deg
Mean motion:   14.69537373 rev/day
Decay rate:       -5.0e-08 rev/day^2
Epoch rev:            9949
Checksum:              341

Satellite: TISAT-1
Catalog number: 36799
Epoch time:      10336.71766666
Element set:     366
Inclination:      098.1288 deg
RA of node:       037.8192 deg
Eccentricity:    0.0015211
Arg of perigee:   187.2186 deg
Mean anomaly:     172.8809 deg
Mean motion:   14.80249184 rev/day
Decay rate:       4.03e-06 rev/day^2
Epoch rev:            2124
Checksum:              319

Satellite: STUDSAT
Catalog number: 36801
Epoch time:      10335.75263938
Element set:    0120
Inclination:      098.1294 deg
RA of node:       036.7251 deg
Eccentricity:    0.0014015
Arg of perigee:   179.1127 deg
Mean anomaly:     181.0114 deg
Mean motion:   14.79844552 rev/day
Decay rate:      1.113e-05 rev/day^2
Epoch rev:           02109
Checksum:              263

/EX
SB KEPS @ AMSAT  $ORB10336.W
Orbital Elements  10336.WEATHER

HR AMSAT ORBITAL ELEMENTS FOR WEATHER SATELLITES
FROM WA5QGD FORT WORTH,TX December 2, 2010
Send Subscribe/unsubscribe to KEPS at http://www.amsat.org/mailman/listinfo/keps
BID: ORB10336.W
TO ALL RADIO AMATEURS BT

Satellite: NOAA-10
Catalog number: 16969
Epoch time:      10336.52355971
Element set:     297
Inclination:      098.6416 deg
RA of node:       003.7777 deg
Eccentricity:    0.0013104
Arg of perigee:   080.5878 deg
Mean anomaly:     279.6791 deg
Mean motion:   14.27436384 rev/day
Decay rate:       1.03e-06 rev/day^2
Epoch rev:           25959
Checksum:              337

Satellite: NOAA-11
Catalog number: 19531
Epoch time:      10336.32821308
Element set:     307
Inclination:      098.7640 deg
RA of node:       062.4465 deg
Eccentricity:    0.0011818
Arg of perigee:   033.2895 deg
Mean anomaly:     326.9016 deg
Mean motion:   14.14897208 rev/day
Decay rate:      -2.22e-06 rev/day^2
Epoch rev:           14491
Checksum:              288

Satellite: NOAA-12
Catalog number: 21263
Epoch time:      10336.43927050
Element set:     796
Inclination:      098.7605 deg
RA of node:       349.5439 deg
Eccentricity:    0.0013116
Arg of perigee:   041.4438 deg
Mean anomaly:     318.7742 deg
Mean motion:   14.25670943 rev/day
Decay rate:        5.6e-07 rev/day^2
Epoch rev:            1637
Checksum:              302

Satellite: MET-3/5
Catalog number: 21655
Epoch time:      10335.76734603
Element set:     977
Inclination:      082.5570 deg
RA of node:       190.2389 deg
Eccentricity:    0.0012524
Arg of perigee:   293.3976 deg
Mean anomaly:     066.5778 deg
Mean motion:   13.17026282 rev/day
Decay rate:        5.1e-07 rev/day^2
Epoch rev:           92773
Checksum:              326

Satellite: MET-2/21
Catalog number: 22782
Epoch time:      10336.49253916
Element set:     953
Inclination:      082.5457 deg
RA of node:       118.9344 deg
Eccentricity:    0.0021057
Arg of perigee:   292.4962 deg
Mean anomaly:     067.3967 deg
Mean motion:   13.83650740 rev/day
Decay rate:        3.7e-07 rev/day^2
Epoch rev:           87135
Checksum:              325

Satellite: OKEAN-4
Catalog number: 23317
Epoch time:      10335.73688416
Element set:    0409
Inclination:      082.5407 deg
RA of node:       197.4655 deg
Eccentricity:    0.0023616
Arg of perigee:   052.2813 deg
Mean anomaly:     308.0555 deg
Mean motion:   14.82902621 rev/day
Decay rate:       3.13e-06 rev/day^2
Epoch rev:           87128
Checksum:              294

Satellite: NOAA-14
Catalog number: 23455
Epoch time:      10336.43575012
Element set:     286
Inclination:      098.8676 deg
RA of node:       055.9096 deg
Eccentricity:    0.0010161
Arg of perigee:   115.7020 deg
Mean anomaly:     244.5191 deg
Mean motion:   14.13801825 rev/day
Decay rate:        3.0e-08 rev/day^2
Epoch rev:           82127
Checksum:              277

Satellite: NOAA-15
Catalog number: 25338
Epoch time:      10336.26667368
Element set:     615
Inclination:      098.6369 deg
RA of node:       320.3278 deg
Eccentricity:    0.0009911
Arg of perigee:   309.1656 deg
Mean anomaly:     050.8640 deg
Mean motion:   14.24870177 rev/day
Decay rate:       1.80e-06 rev/day^2
Epoch rev:           65268
Checksum:              322

Satellite: RESURS
Catalog number: 25394
Epoch time:      10336.60758351
Element set:     665
Inclination:      098.2999 deg
RA of node:       345.4765 deg
Eccentricity:    0.0002392
Arg of perigee:   082.9246 deg
Mean anomaly:     277.2201 deg
Mean motion:   14.24217442 rev/day
Decay rate:        4.0e-08 rev/day^2
Epoch rev:           64432
Checksum:              301

Satellite: FENGYUN1
Catalog number: 25730
Epoch time:      10336.83065211
Element set:     198
Inclination:      098.8019 deg
RA of node:       297.5334 deg
Eccentricity:    0.0020130
Arg of perigee:   145.3391 deg
Mean anomaly:     214.9082 deg
Mean motion:   14.08447975 rev/day
Decay rate:       9.85e-06 rev/day^2
Epoch rev:           59542
Checksum:              306

